EUTELSAT 21B            
1 38992U 12062B   26007.31694656  .00000132  00000+0  00000+0 0  9991
2 38992   0.0683  18.2912 0003053 272.9307 311.3385  1.00271309 48216
EUTELSAT 70B            
1 39020U 12069A   26007.46939421 -.00000041  00000+0  00000+0 0  9999
2 39020   0.0641 342.9031 0003914 279.8309  83.7820  1.00272484 47898
EUTELSAT 117 WEST A     
1 39122U 13012A   26007.43221395 -.00000011  00000+0  00000+0 0  9999
2 39122   0.0459 279.8926 0003208  14.7292 211.1624  1.00274537 46824
EUTELSAT 7B             
1 39163U 13022A   26007.35600291  .00000050  00000+0  00000+0 0  9994
2 39163   0.0651   3.3683 0005424 325.1727 273.5172  1.00271753 46330
EXPRESS-AT1             
1 39612U 14010A   26007.53777464  .00000082  00000+0  00000+0 0  9993
2 39612   0.0209 284.7094 0000383 343.3042  88.6540  1.00270373 43204
EXPRESS-AT2             
1 39613U 14010B   26007.56661358  .00000000  00000+0  00000+0 0  9991
2 39613   0.0172  27.9311 0001254 267.3006 155.7376  1.00269368 42895
EUTELSAT 3B             
1 39773U 14030A   26007.35600291  .00000022  00000+0  00000+0 0  9990
2 39773   0.0632 344.0486 0004112 255.9540 358.1824  1.00273519 42453
EUTELSAT 115 WEST B     
1 40425U 15010B   26007.43264729 -.00000023  00000+0  00000+0 0  9998
2 40425   0.0009 197.3903 0000311 248.9371  61.5179  1.00273399 39787
